{
  "type": "FeatureCollection",
  "features": [
    {
      "type": "Feature",
      "properties": {
        "norad_id": 65731,
        "name": "1998-067XK",
        "group": "stations",
        "lat": 51.05411219169094,
        "lon": -139.32735286073563,
        "alt_km": 368.0100129585999,
        "timestamp": "2025-12-11T18:59:44.831560+00:00",
        "meta_object_name": "1998-067XK",
        "meta_object_id": "1998-067XK",
        "meta_epoch": "2025-12-10T11:59:54.530016",
        "meta_mean_motion": 15.65134348,
        "meta_eccentricity": 0.00051808,
        "meta_inclination": 51.6281,
        "meta_ra_of_asc_node": 148.5918,
        "meta_arg_of_pericenter": 231.8122,
        "meta_mean_anomaly": 128.2407,
        "meta_ephemeris_type": 0,
        "meta_classification_type": "U",
        "meta_norad_cat_id": 65731,
        "meta_element_set_no": 999,
        "meta_rev_at_epoch": 1279,
        "meta_bstar": 0.0012258975,
        "meta_mean_motion_dot": 0.00124892,
        "meta_mean_motion_ddot": 0,
        "tle_line1": "1 65731U 98067XK  25344.49993669  .00124892  00000+0  12259-2 0  9991",
        "tle_line2": "2 65731  51.6281 148.5918 0005180 231.8122 128.2407 15.65134348 12799"
      },
      "geometry": {
        "type": "Point",
        "coordinates": [
          -139.32735286073563,
          51.05411219169094
        ]
      }
    },
    {
      "type": "Feature",
      "properties": {
        "norad_id": 65732,
        "name": "RSP-03",
        "group": "stations",
        "lat": 34.02511397472841,
        "lon": 173.702872033841,
        "alt_km": 363.24544180307566,
        "timestamp": "2025-12-11T18:59:44.831572+00:00",
        "meta_object_name": "RSP-03",
        "meta_object_id": "1998-067XL",
        "meta_epoch": "2025-12-10T19:51:35.371008",
        "meta_mean_motion": 15.67939317,
        "meta_eccentricity": 0.00058921,
        "meta_inclination": 51.6264,
        "meta_ra_of_asc_node": 146.2697,
        "meta_arg_of_pericenter": 237.5222,
        "meta_mean_anomaly": 122.5205,
        "meta_ephemeris_type": 0,
        "meta_classification_type": "U",
        "meta_norad_cat_id": 65732,
        "meta_element_set_no": 999,
        "meta_rev_at_epoch": 1286,
        "meta_bstar": 0.0014115641,
        "meta_mean_motion_dot": 0.00161929,
        "meta_mean_motion_ddot": 0,
        "tle_line1": "1 65732U 98067XL  25344.82749272  .00161929  00000+0  14116-2 0  9994",
        "tle_line2": "2 65732  51.6264 146.2697 0005892 237.5222 122.5205 15.67939317 12866"
      },
      "geometry": {
        "type": "Point",
        "coordinates": [
          173.702872033841,
          34.02511397472841
        ]
      }
    },
    {
      "type": "Feature",
      "properties": {
        "norad_id": 65733,
        "name": "GHS-01",
        "group": "stations",
        "lat": -41.56727564774228,
        "lon": 95.43097580262629,
        "alt_km": 346.997125769728,
        "timestamp": "2025-12-11T18:59:44.831588+00:00",
        "meta_object_name": "GHS-01",
        "meta_object_id": "1998-067XM",
        "meta_epoch": "2025-12-11T04:00:14.108544",
        "meta_mean_motion": 15.73916996,
        "meta_eccentricity": 0.00069838,
        "meta_inclination": 51.6283,
        "meta_ra_of_asc_node": 143.2841,
        "meta_arg_of_pericenter": 269.574,
        "meta_mean_anomaly": 90.4459,
        "meta_ephemeris_type": 0,
        "meta_classification_type": "U",
        "meta_norad_cat_id": 65733,
        "meta_element_set_no": 999,
        "meta_rev_at_epoch": 1293,
        "meta_bstar": 0.0018348813,
        "meta_mean_motion_dot": 0.0027452,
        "meta_mean_motion_ddot": 0,
        "tle_line1": "1 65733U 98067XM  25345.16682996  .00274520  00000+0  18349-2 0  9996",
        "tle_line2": "2 65733  51.6283 143.2841 0006983 269.5740  90.4459 15.73916996 12935"
      },
      "geometry": {
        "type": "Point",
        "coordinates": [
          95.43097580262629,
          -41.56727564774228
        ]
      }
    },
    {
      "type": "Feature",
      "properties": {
        "norad_id": 65941,
        "name": "YOTSUBA-KULOVER",
        "group": "stations",
        "lat": -33.93767201427116,
        "lon": -3.0357080083988395,
        "alt_km": 392.72116363599434,
        "timestamp": "2025-12-11T18:59:44.831612+00:00",
        "meta_object_name": "YOTSUBA-KULOVER",
        "meta_object_id": "1998-067XN",
        "meta_epoch": "2025-12-11T04:11:21.290208",
        "meta_mean_motion": 15.59146192,
        "meta_eccentricity": 0.0001499,
        "meta_inclination": 51.6286,
        "meta_ra_of_asc_node": 147.8439,
        "meta_arg_of_pericenter": 235.0744,
        "meta_mean_anomaly": 125.0108,
        "meta_ephemeris_type": 0,
        "meta_classification_type": "U",
        "meta_norad_cat_id": 65941,
        "meta_element_set_no": 999,
        "meta_rev_at_epoch": 961,
        "meta_bstar": 0.0011290843,
        "meta_mean_motion_dot": 0.00090601,
        "meta_mean_motion_ddot": 0,
        "tle_line1": "1 65941U 98067XN  25345.17455197  .00090601  00000+0  11291-2 0  9994",
        "tle_line2": "2 65941  51.6286 147.8439 0001499 235.0744 125.0108 15.59146192  9615"
      },
      "geometry": {
        "type": "Point",
        "coordinates": [
          -3.0357080083988395,
          -33.93767201427116
        ]
      }
    },
    {
      "type": "Feature",
      "properties": {
        "norad_id": 65942,
        "name": "BOTAN",
        "group": "stations",
        "lat": -1.8937075073494731,
        "lon": -34.41599590038641,
        "alt_km": 379.66953319074855,
        "timestamp": "2025-12-11T18:59:44.831633+00:00",
        "meta_object_name": "BOTAN",
        "meta_object_id": "1998-067XP",
        "meta_epoch": "2025-12-11T04:24:13.610304",
        "meta_mean_motion": 15.62408727,
        "meta_eccentricity": 0.00033439,
        "meta_inclination": 51.6284,
        "meta_ra_of_asc_node": 147.154,
        "meta_arg_of_pericenter": 226.7557,
        "meta_mean_anomaly": 133.3159,
        "meta_ephemeris_type": 0,
        "meta_classification_type": "U",
        "meta_norad_cat_id": 65942,
        "meta_element_set_no": 999,
        "meta_rev_at_epoch": 962,
        "meta_bstar": 0.0015270282,
        "meta_mean_motion_dot": 0.00140033,
        "meta_mean_motion_ddot": 0,
        "tle_line1": "1 65942U 98067XP  25345.18349086  .00140033  00000+0  15270-2 0  9991",
        "tle_line2": "2 65942  51.6284 147.1540 0003343 226.7557 133.3159 15.62408727  9627"
      },
      "geometry": {
        "type": "Point",
        "coordinates": [
          -34.41599590038641,
          -1.8937075073494731
        ]
      }
    },
    {
      "type": "Feature",
      "properties": {
        "norad_id": 65943,
        "name": "E-KAGAKU-1",
        "group": "stations",
        "lat": -34.080209020783165,
        "lon": -2.8508173999112705,
        "alt_km": 390.4586083702743,
        "timestamp": "2025-12-11T18:59:44.831647+00:00",
        "meta_object_name": "E-KAGAKU-1",
        "meta_object_id": "1998-067XQ",
        "meta_epoch": "2025-12-10T06:39:08.237952",
        "meta_mean_motion": 15.5900432,
        "meta_eccentricity": 0.00052507,
        "meta_inclination": 51.6298,
        "meta_ra_of_asc_node": 152.3458,
        "meta_arg_of_pericenter": 191.2269,
        "meta_mean_anomaly": 168.8608,
        "meta_ephemeris_type": 0,
        "meta_classification_type": "U",
        "meta_norad_cat_id": 65943,
        "meta_element_set_no": 999,
        "meta_rev_at_epoch": 947,
        "meta_bstar": 0.0012588803,
        "meta_mean_motion_dot": 0.00100705,
        "meta_mean_motion_ddot": 0,
        "tle_line1": "1 65943U 98067XQ  25344.27717868  .00100705  00000+0  12589-2 0  9990",
        "tle_line2": "2 65943  51.6298 152.3458 0005250 191.2269 168.8608 15.59004320  9476"
      },
      "geometry": {
        "type": "Point",
        "coordinates": [
          -2.8508173999112705,
          -34.080209020783165
        ]
      }
    },
    {
      "type": "Feature",
      "properties": {
        "norad_id": 66052,
        "name": "HRC MONOBLOCK CAMERA",
        "group": "stations",
        "lat": -35.20191518658137,
        "lon": 0.21869797462884133,
        "alt_km": 407.36680702176545,
        "timestamp": "2025-12-11T18:59:44.831658+00:00",
        "meta_object_name": "HRC MONOBLOCK CAMERA",
        "meta_object_id": "1998-067XR",
        "meta_epoch": "2025-12-11T04:07:53.480928",
        "meta_mean_motion": 15.53961179,
        "meta_eccentricity": 0.00035327,
        "meta_inclination": 51.6288,
        "meta_ra_of_asc_node": 149.3227,
        "meta_arg_of_pericenter": 176.6815,
        "meta_mean_anomaly": 183.4199,
        "meta_ephemeris_type": 0,
        "meta_classification_type": "U",
        "meta_norad_cat_id": 66052,
        "meta_element_set_no": 999,
        "meta_rev_at_epoch": 859,
        "meta_bstar": 0.00078110434,
        "meta_mean_motion_dot": 0.00051254,
        "meta_mean_motion_ddot": 0,
        "tle_line1": "1 66052U 98067XR  25345.17214677  .00051254  00000+0  78110-3 0  9999",
        "tle_line2": "2 66052  51.6288 149.3227 0003532 176.6815 183.4199 15.53961179  8590"
      },
      "geometry": {
        "type": "Point",
        "coordinates": [
          0.21869797462884133,
          -35.20191518658137
        ]
      }
    }
  ]
}